0 COSMOS 2087
1 20707U 90064A   13285.69437061  .00001032  00000-0  00000+0 0  5665
2 20707 065.6183 124.2290 6624278 149.5838 357.4828 02.00382943170107
0 COSMOS 2087
1 20707U 90064A   13288.57556289  .00001029  00000-0  00000+0 0  5676
2 20707 065.6134 123.9791 6622918 149.5231 275.9746 02.00389664170167
0 COSMOS 2087
1 20707U 90064A   13288.80891756  .00001025  00000-0  00000+0 0  5680
2 20707 065.6235 123.9505 6622048 149.5329 084.2963 02.00388244170169
0 COSMOS 2087
1 20707U 90064A   13290.07272189 -.00000001  00000-0  10000-3 0  5707
2 20707 065.6332 123.9111 6622879 149.4629 276.0070 02.00392124170188
0 COSMOS 2087
1 20707U 90064A   13290.07275645 -.00000096  00000-0  10000-3 0  5699
2 20707 065.6256 123.9145 6623590 149.4568 276.0325 02.00391195170183
0 COSMOS 2087
1 20707U 90064A   13293.56596136  .00000928  00000-0  00000+0 0  5695
2 20707 065.6296 123.5254 6618840 149.4531 276.1083 02.00396803170268
